[{"OBJECT_NAME":"STARLINK-5964","OBJECT_ID":"2023-042Z","EPOCH":"2026-03-09T00:25:17.622048","MEAN_MOTION":15.02616862,"ECCENTRICITY":0.00015763,"INCLINATION":43.0047,"RA_OF_ASC_NODE":59.3853,"ARG_OF_PERICENTER":249.2966,"MEAN_ANOMALY":110.7707,"EPHEMERIS_TYPE":0,"CLASSIFICATION_TYPE":"U","NORAD_CAT_ID":56009,"ELEMENT_SET_NO":999,"REV_AT_EPOCH":16281,"BSTAR":-0.001285248,"MEAN_MOTION_DOT":-0.00017559,"MEAN_MOTION_DDOT":0},{"OBJECT_NAME":"CZ-6A DEB","OBJECT_ID":"2024-140AEQ","EPOCH":"2026-03-08T12:33:24.076512","MEAN_MOTION":14.8870666,"ECCENTRICITY":0.00636681,"INCLINATION":88.9441,"RA_OF_ASC_NODE":276.789,"ARG_OF_PERICENTER":190.9278,"MEAN_ANOMALY":169.0572,"EPHEMERIS_TYPE":0,"CLASSIFICATION_TYPE":"U","NORAD_CAT_ID":64650,"ELEMENT_SET_NO":999,"REV_AT_EPOCH":7602,"BSTAR":0.0049237892,"MEAN_MOTION_DOT":0.00048011,"MEAN_MOTION_DDOT":0}]
